STARLINK-1169           
1 45061U 20006T   26084.72543519  .00008933  00000+0  30789-3 0  9992
2 45061  53.1533 206.4882 0001384  47.9492 312.1627 15.30778723339009
STARLINK-1171           
1 45062U 20006U   26084.93560463  .00048001  00000+0  47348-3 0  9992
2 45062  53.0440 169.7745 0003296  24.2562 335.8607 15.65467873339532
STARLINK-1133           
1 45064U 20006W   26084.66755346 -.00020909  00000+0 -69419-3 0  9992
2 45064  53.1574 183.5814 0000958 107.2209 252.8897 15.30274823339325
STARLINK-1167           
1 45071U 20006AD  26084.96065801  .00032599  00000+0  11004-2 0  9995
2 45071  53.1553 182.3171 0002054  40.3804 319.7350 15.30420204339367
STARLINK-1168           
1 45072U 20006AE  26083.99519087  .00001457  00000+0  62810-4 0  9990
2 45072  53.1588 186.9105 0001307  89.4167 270.6984 15.29355696339211
STARLINK-1172           
1 45074U 20006AG  26084.57353179  .00034912  00000+0  11419-2 0  9994
2 45074  53.1560 183.9815 0001327  30.9738 329.1341 15.31407423339301
STARLINK-1153           
1 45080U 20006AN  26084.55319126  .00049845  00000+0  16712-2 0  9995
2 45080  53.1591 184.1277 0002186  24.0172 336.0931 15.30442914339302
STARLINK-1151           
1 45081U 20006AP  26084.90581212  .00052967  00000+0  48229-3 0  9990
2 45081  53.0517 160.0462 0003619  30.5377 329.5849 15.67417233339660
STARLINK-1185           
1 45087U 20006AV  26084.94463975  .00053326  00000+0  15750-2 0  9997
2 45087  53.1625 166.5566 0002614 128.4446 231.6792 15.34463623339580
STARLINK-1183           
1 45088U 20006AW  26084.95087870  .00003151  00000+0  11846-3 0  9999
2 45088  53.1599 167.0490 0001232  84.2346 275.8795 15.30198067339571
STARLINK-1152           
1 45096U 20006BE  26084.82691083  .00058448  00000+0  14213-2 0  9990
2 45096  53.0372 130.2405 0002878 316.5359  43.5418 15.40431134340073
STARLINK-1184           
1 45098U 20006BG  26084.94134837  .00015552  00000+0  93548-3 0  9992
2 45098  53.0528 171.9770 0003276 175.4576 184.6445 15.11021073339497
STARLINK-1193           
1 45100U 20006BJ  26084.88582828  .00049426  00000+0  63344-3 0  9994
2 45100  53.0497 151.8463 0005193  24.0157 336.1096 15.58686413339779
ONEWEB-0013             
1 45131U 20008A   26084.95839894  .00002180  00000+0  62919-2 0  9998
2 45131  87.8448  69.6178 0001308 119.7116 240.4141 13.09435208295175
ONEWEB-0017             
1 45132U 20008B   26084.92276029 -.00000322  00000+0 -95811-3 0  9997
2 45132  87.8796  52.8415 0002129  82.1396 277.9973 13.10370268297047
ONEWEB-0020             
1 45133U 20008C   26084.89290125  .00000672  00000+0  18875-2 0  9997
2 45133  87.8801  52.8389 0001886  83.2686 276.8656 13.10374674297432
ONEWEB-0021             
1 45134U 20008D   26084.90782907  .00000469  00000+0  13070-2 0  9990
2 45134  87.8797  52.8594 0001913  85.9644 274.1702 13.10371579297747
ONEWEB-0023             
1 45136U 20008F   26084.91860646 -.00000141  00000+0 -43915-3 0  9991
2 45136  87.8793  52.8365 0001740  85.6419 274.4907 13.10369089297176
ONEWEB-0024             
1 45137U 20008G   26084.89123753  .00000660  00000+0  18537-2 0  9995
2 45137  87.8809  52.8290 0001970  83.2867 276.8484 13.10374262297331
ONEWEB-0025             
1 45138U 20008H   26084.89269271  .00000586  00000+0  16311-2 0  9997
2 45138  87.8803  52.8171 0001765  92.8669 267.2660 13.10877117297665
ONEWEB-0026             
1 45139U 20008J   26084.91879964  .00000342  00000+0  92990-3 0  9995
2 45139  87.8901  37.6166 0002046  77.2727 282.8630 13.11418963300199
ONEWEB-0028             
1 45140U 20008K   26084.87555727 -.00000030  00000+0 -12022-3 0  9994
2 45140  87.8883  37.6325 0001401  95.5496 264.5792 13.11414661297706
ONEWEB-0032             
1 45141U 20008L   26084.92441696 -.00000405  00000+0 -11966-2 0  9991
2 45141  87.8794  52.8425 0001483  93.0114 267.1183 13.10371928297393
ONEWEB-0033             
1 45142U 20008M   26084.89954402  .00000689  00000+0  19370-2 0  9991
2 45142  87.8796  52.8563 0002412  78.7237 281.4162 13.10373743297302
ONEWEB-0035             
1 45143U 20008N   26084.93022622 -.00000629  00000+0 -18388-2 0  9991
2 45143  87.8792  52.8488 0001986  81.5305 278.6047 13.10371892297031
ONEWEB-0036             
1 45144U 20008P   26084.93709791 -.00000681  00000+0 -20022-2 0  9997
2 45144  87.8809  52.8242 0001616  83.3689 276.7622 13.09818334297464
ONEWEB-0038             
1 45145U 20008Q   26084.92911216  .00000608  00000+0  16784-2 0  9991
2 45145  87.8902  37.6161 0003073 109.5677 250.5783 13.11416036299418
ONEWEB-0039             
1 45146U 20008R   26084.90285624  .00000628  00000+0  17622-2 0  9991
2 45146  87.8810  52.8410 0001509  96.5445 263.5854 13.10371583297252
ONEWEB-0040             
1 45147U 20008S   26084.89621537  .00000708  00000+0  19909-2 0  9996
2 45147  87.8802  52.8571 0001902  85.5456 274.5888 13.10373850296953
ONEWEB-0043             
1 45149U 20008U   26084.89787690  .00000805  00000+0  22694-2 0  9994
2 45149  87.8804  52.8403 0001473  96.0187 264.1108 13.10372850297277
ONEWEB-0044             
1 45150U 20008V   26084.92607032 -.00000488  00000+0 -14331-2 0  9999
2 45150  87.8805  52.8314 0001788  88.2471 271.8861 13.10368963297573
ONEWEB-0045             
1 45151U 20008W   26084.92389381  .00000473  00000+0  12996-2 0  9991
2 45151  87.8902  37.6037 0001840  83.5284 276.6053 13.11417561299493
ONEWEB-0047             
1 45152U 20008X   26084.91944012 -.00000181  00000+0 -55542-3 0  9992
2 45152  87.8800  52.8345 0002062  83.9999 276.1363 13.10370523297296
ONEWEB-0048             
1 45153U 20008Y   26084.91446548  .00000121  00000+0  31063-3 0  9998
2 45153  87.8791  52.8618 0001968  83.7264 276.4087 13.10370276296904
ONEWEB-0049             
1 45154U 20008Z   26084.91764608  .00000023  00000+0  30841-4 0  9994
2 45154  87.8794  52.8493 0001549  73.3115 286.8183 13.10369660297126
ONEWEB-0051             
1 45155U 20008AA  26084.92218766  .00000495  00000+0  13621-2 0  9993
2 45155  87.8899  37.6165 0001885  80.6857 279.4484 13.11419070300171
ONEWEB-0052             
1 45156U 20008AB  26085.00003472 -.00039364  00000+0 -11581+0 0  9999
2 45156  87.8805  52.8064 0001409  77.2967 271.2599 13.08848626  4988
ONEWEB-0053             
1 45157U 20008AC  26084.89455329  .00000703  00000+0  19779-2 0  9991
2 45157  87.8799  52.8629 0001423  88.3899 271.7392 13.10374336297009
ONEWEB-0054             
1 45158U 20008AD  26084.92938789 -.00000468  00000+0 -13778-2 0  9995
2 45158  87.8805  52.8317 0001857  80.6357 279.4980 13.10372511297121
ONEWEB-0056             
1 45159U 20008AE  26084.91031764  .00000317  00000+0  87078-3 0  9998
2 45159  87.8801  52.8357 0001836  77.1366 282.9966 13.10370896297273
ONEWEB-0057             
1 45160U 20008AF  26084.91792902 -.00000063  00000+0 -21795-3 0  9992
2 45160  87.8798  52.8432 0001413  88.9473 271.1816 13.10372957297447
ONEWEB-0058             
1 45161U 20008AG  26084.90462992  .00002388  00000+0  68010-2 0  9995
2 45161  87.8799  52.8542 0002291  84.3505 275.7883 13.10389122297516
ONEWEB-0059             
1 45162U 20008AH  26084.90120228  .00000663  00000+0  18633-2 0  9999
2 45162  87.8798  52.8556 0001884  88.9042 271.2301 13.10373123297413
ONEWEB-0062             
1 45163U 20008AJ  26084.92690225 -.00000525  00000+0 -15398-2 0  9995
2 45163  87.8801  52.8338 0002323  83.7916 276.3476 13.10370096297289
ONEWEB-0065             
1 45164U 20008AK  26084.95748360  .00000202  00000+0  54349-3 0  9993
2 45164  87.8805  52.8355 0001569  76.6228 283.5075 13.10376931296986
STARLINK-1143           
1 45179U 20012B   26084.72457367  .00063139  00000+0  59443-3 0  9991
2 45179  53.0432 251.2276 0005257 167.1630 192.9519 15.66508499338433
STARLINK-1202           
1 45183U 20012F   26084.88656897 -.00002309  00000+0 -65872-4 0  9990
2 45183  53.1587 324.0201 0001394  60.2204 299.8936 15.30189196337434
STARLINK-1216           
1 45185U 20012H   26084.94240255  .00009851  00000+0  34408-3 0  9993
2 45185  53.1588 323.7406 0001043  97.4127 262.6992 15.30219775337388
STARLINK-1225           
1 45187U 20012K   26084.93931959  .00000839  00000+0  40478-4 0  9994
2 45187  53.1584 324.1919 0001126  84.2504 275.8626 15.30186098337421
STARLINK-1230           
1 45189U 20012M   26084.88348388  .00003457  00000+0  12876-3 0  9997
2 45189  53.1597 324.5128 0001289  94.6256 265.4892 15.30205850334641
STARLINK-1234           
1 45190U 20012N   26084.17900492  .00053515  00000+0  53146-3 0  9996
2 45190  53.0423 249.3812 0005736 343.3615  16.7211 15.65239067338302
STARLINK-1269           
1 45197U 20012V   26084.94563507  .00001943  00000+0  77728-4 0  9991
2 45197  53.1603 324.0846 0001427  89.3845 270.7319 15.30196975337406
STARLINK-1154           
1 45198U 20012W   26084.89683732  .00036141  00000+0  67229-3 0  9991
2 45198  53.0493 292.5326 0005778 149.5159 210.6185 15.48541645337800
STARLINK-1199           
1 45201U 20012Z   26084.91491520  .00001795  00000+0  72714-4 0  9994
2 45201  53.1566 308.4704 0001397  96.6186 263.4974 15.30194970337649
STARLINK-1209           
1 45206U 20012AE  26084.76852621  .00116247  00000+0  17581-2 0  9993
2 45206  53.0463 255.9902 0007731 326.3430  33.7088 15.53814021337418
STARLINK-1231           
1 45212U 20012AL  26083.98214300  .00026859  00000+0  11607-2 0  9991
2 45212  53.0435 305.4849 0004097 148.2709 211.8535 15.22309209337551
STARLINK-1271           
1 45217U 20012AR  26084.91282950 -.00000715  00000+0 -12030-4 0  9994
2 45217  53.1576 308.6065 0001178  94.1698 265.9438 15.30192018337640
STARLINK-1191           
1 45222U 20012AW  26084.92649947  .00050303  00000+0  16326-2 0  9990
2 45222  53.1605 283.3384 0000183 145.8611 214.2402 15.31488453338007
STARLINK-1212           
1 45223U 20012AX  26084.93283657  .00081405  00000+0  11878-2 0  9998
2 45223  53.0476 271.7167 0004544 188.4419 171.6515 15.54983876338169
